EYESAT-1 (AO-27)        
1 22825U 93061C   17131.87830329 -.00000007  00000-0  14788-4 0  9991
2 22825  98.8091  97.0199 0009554  78.8127 281.4128 14.29995132231947
CUTE-1 (CO-55)          
1 27844U 03031E   17131.90950386  .00000044  00000-0  39647-4 0  9996
2 27844  98.6902 141.4432 0011015  92.5607 267.6832 14.22034544719120
CUBESAT XI-IV (CO-57)   
1 27848U 03031J   17131.96982876  .00000032  00000-0  34283-4 0  9993
2 27848  98.6994 141.7460 0010899 100.6683 259.5722 14.21649472719021
CUBESAT XI 5            
1 28895U 05043F   17131.72936111  .00000138  00000-0  35363-4 0  9993
2 28895  97.8608 295.7105 0015445 257.7780 102.1694 14.63385537614926
CUTE-1.7+APD II (CO-65) 
1 32785U 08021C   17131.45618350  .00000222  00000-0  29969-4 0  9996
2 32785  97.5691 157.4013 0011608 292.8746  67.1245 14.87865874489362
COMPASS-1               
1 32787U 08021E   17131.61270539  .00000220  00000-0  26669-4 0  9991
2 32787  97.5631 166.1932 0010982 258.6286 101.3701 14.92555324489997
AAUSAT-II               
1 32788U 08021F   17131.66114029  .00000552  00000-0  57161-4 0  9997
2 32788  97.5621 169.0168 0010411 249.6799 110.3303 14.93825205490120
DELFI-C3 (DO-64)        
1 32789U 08021G   17131.71845935  .00001620  00000-0  11912-3 0  9991
2 32789  97.5616 190.7148 0012054 220.3249 139.7084 15.04746392491286
CANX-2                  
1 32790U 08021H   17131.02563203  .00000200  00000-0  27686-4 0  9991
2 32790  97.5668 155.3907 0012349 296.1006  63.8940 14.87595473489315
SEEDS II (CO-66)        
1 32791U 08021J   17131.31340749  .00000301  00000-0  36504-4 0  9993
2 32791  97.5663 161.5149 0011843 276.5189  83.4681 14.90188895489578
SWISSCUBE               
1 35932U 09051B   17131.37016765  .00000131  00000-0  40754-4 0  9994
2 35932  98.4899 269.2271 0007720  14.3204 345.8210 14.56000637404968
BEESAT                  
1 35933U 09051C   17131.84054904  .00000099  00000-0  33377-4 0  9990
2 35933  98.4937 270.9941 0006243  28.2944 331.8591 14.56121748405133
ITUPSAT 1               
1 35935U 09051E   17131.32726534  .00000089  00000-0  31554-4 0  9994
2 35935  98.5047 270.7247 0008402  20.1735 339.9792 14.55316512404879
TISAT 1                 
1 36799U 10035E   17131.82220236  .00000460  00000-0  53305-4 0  9991
2 36799  98.0566 253.8243 0013867  87.7631 272.5174 14.90354973370164
M-CUBED & EXP-1 PRIME   
1 37855U 11061F   17131.18146506  .00001330  00000-0  77709-4 0  9992
2 37855 101.7219 343.8124 0181138 190.7309 169.0014 15.02902161300761
HORYU 2                 
1 38340U 12025D   17131.53120953  .00000207  00000-0  38727-4 0  9999
2 38340  98.3764 134.1622 0012770  52.9623 307.2751 14.75317230257473
STRAND-1                
1 39090U 13009E   17131.83327599  .00000035  00000-0  27650-4 0  9995
2 39090  98.5574 337.6074 0010195  52.6707 307.5406 14.34963666220269
BRITE-AUSTRIA           
1 39091U 13009F   17131.50041858  .00000019  00000-0  22187-4 0  9993
2 39091  98.5536 336.6770 0011584  60.1755 300.0580 14.35025995220222
UNIBRITE                
1 39092U 13009G   17131.14790919  .00000009  00000-0  18675-4 0  9999
2 39092  98.5545 336.0225 0010388  55.4143 304.8021 14.34900266220168
AIST-2                  
1 39133U 13015D   17131.80317212  .00000087  00000-0  18874-4 0  9993
2 39133  64.8747  40.5380 0036083 288.6014  71.1188 15.04262423222827
SOMP                    
1 39134U 13015E   17131.84470369  .00000962  00000-0  56855-4 0  9994
2 39134  64.8673 343.7552 0034088 277.8906  81.8351 15.17680634223966
BEESAT-2                
1 39136U 13015G   17131.80483463  .00000683  00000-0  46506-4 0  9993
2 39136  64.8706 354.0702 0031428 288.5477  71.2234 15.14989336223763
NEE-01 PEGASUS          
1 39151U 13018B   17131.45109421  .00000164  00000-0  28834-4 0  9991
2 39151  97.9825 223.2043 0017626 164.6724 195.5025 14.79699253218103
CUBEBUG-1 (CAPITAN BETO)
1 39153U 13018D   17131.79054332  .00000187  00000-0  31626-4 0  9998
2 39153  97.9845 224.2830 0017589 161.9646 198.2193 14.80160230218200
ESTCUBE 1               
1 39161U 13021C   17131.76104307  .00000174  00000-0  35776-4 0  9992
2 39161  98.0279 218.2382 0008071 256.6937 103.3373 14.71879986215397
POPACS 1                
1 39268U 13055D   17131.78448670  .00004629  00000-0  13438-3 0  9992
2 39268  81.0073  46.1762 0652237 326.4897  29.6559 14.30612665186981
POPACS 2                
1 39269U 13055E   17131.84134030  .00005112  00000-0  15094-3 0  9990
2 39269  81.0185  60.2388 0702246   3.3113 357.2355 14.19675154186146
POPACS 3                
1 39270U 13055F   17131.51195545  .00003462  00000-0  10879-3 0  9996
2 39270  81.0178  68.2558 0726930  27.7967 336.0135 14.12979857185599
FIREFLY                 
1 39404U 13064AA  17131.47980684  .00026367  00000-0  18543-3 0  9991
2 39404  40.4979 174.7561 0006205 156.2981 203.8133 15.73428275191871
ZACUBE-1 (TSHEPISOSAT)  
1 39417U 13066B   17131.66863516  .00000186  00000-0  30113-4 0  9991
2 39417  97.6329 175.6746 0060099  30.8701 329.6023 14.80686758187375
WNISAT-1                
1 39423U 13066H   17131.90645568  .00000062  00000-0  22000-4 0  9999
2 39423  97.6805 123.2872 0175324 191.1717 168.5567 14.52833870183968
TRITON-1                
1 39427U 13066M   17131.57414889  .00000174  00000-0  35541-4 0  9994
2 39427  97.6394 149.3823 0115976 105.8886 255.5138 14.67436945185484
GOMX 1                  
1 39430U 13066Q   17131.54612885  .00000173  00000-0  40189-4 0  9994
2 39430  97.6647 133.3786 0152543 158.2219 202.5562 14.58846776184594
BRITE-PL                
1 39431U 13066R   17131.81044693  .00000005  00000-0  11651-4 0  9997
2 39431  97.7037 112.8011 0201570 228.0576 130.3286 14.46834493182992
HUMSAT-D                
1 39433U 13066T   17131.68924102  .00000264  00000-0  31844-4 0  9999
2 39433  97.6551 195.8846 0030518 341.2963  18.7132 14.91386400187399
EAGLE 2                 
1 39436U 13066W   17131.52278820  .00014974  00000-0  43529-3 0  9999
2 39436  97.7069 235.7465 0011851 205.8081 154.2572 15.35497368189877
CUBEBUG-2 (LO-74)       
1 39440U 13066AA  17131.62338306  .00000208  00000-0  36108-4 0  9992
2 39440  97.6319 165.0973 0082151  59.7022 301.2284 14.75427945186700
NEE-02 KRYSAOR          
1 39441U 13066AB  17131.06735665  .00000155  00000-0  29210-4 0  9997
2 39441  97.6300 163.3370 0083592  64.7490 296.2354 14.74600702186511
FUNCUBE-1 (AO-73)       
1 39444U 13066AE  17131.66628007  .00000255  00000-0  38139-4 0  9998
2 39444  97.6345 176.6793 0059197  27.8362 332.5997 14.81413885185610
UWE-3                   
1 39446U 13066AG  17131.58902460  .00000215  00000-0  35495-4 0  9997
2 39446  97.6313 170.0587 0071563  45.6751 315.0297 14.77960438185791
BRITE-TORONTO           
1 40020U 14033L   17131.59832397  .00000092  00000-0  24148-4 0  9990
2 40020  97.8414   4.0110 0089085  83.5047 277.6291 14.66381024154733
DUCHIFAT-1              
1 40021U 14033M   17131.69565578  .00000447  00000-0  52455-4 0  9992
2 40021  97.9206  44.8054 0014587  64.0046 296.2672 14.89846074157167
FLOCK 1C-10             
1 40023U 14033P   17131.69909685  .00000412  00000-0  50200-4 0  9993
2 40023  97.9232  43.9318 0014261  67.0624 293.2096 14.88647816157074
NANOSATC-BR1            
1 40024U 14033Q   17131.68128400  .00000330  00000-0  40860-4 0  9991
2 40024  97.9167  43.7357 0013852  65.1429 295.1227 14.89177542156598
QB50P1                  
1 40025U 14033R   17131.70859877  .00000273  00000-0  35462-4 0  9992
2 40025  97.9149  42.8583 0014014  67.4414 292.8284 14.88388294156550
FLOCK 1C-7              
1 40026U 14033S   17131.66670707  .00000928  00000-0  10362-3 0  9999
2 40026  97.9252  44.5736 0012655  65.1232 295.1307 14.89385505157115
FLOCK 1C-1              
1 40027U 14033T   17131.87025913  .00000814  00000-0  93082-4 0  9991
2 40027  97.9259  44.3203 0014271  64.6246 295.6419 14.88714540157118
POPSAT-HIP-1            
1 40028U 14033U   17131.80421601  .00000464  00000-0  56191-4 0  9990
2 40028  97.9186  43.2160 0015564  64.2089 296.0737 14.88261418157068
FLOCK 1C-2              
1 40029U 14033V   17131.69789465  .00000438  00000-0  52843-4 0  9994
2 40029  97.9238  44.0073 0015847  61.7212 298.5625 14.88729174157075
FLOCK 1C-4              
1 40031U 14033X   17131.71060405  .00000256  00000-0  33482-4 0  9992
2 40031  97.9257  44.0135 0016333  59.0101 301.2769 14.88585678157065
QB50P2                  
1 40032U 14033Y   17131.81246757  .00000266  00000-0  35068-4 0  9993
2 40032  97.9124  42.1191 0013383  62.6847 297.5730 14.87947524157032
FLOCK 1C-11             
1 40033U 14033Z   17131.26964610  .00000792  00000-0  87630-4 0  9994
2 40033  97.9257  44.8641 0013363  56.0835 304.1646 14.90134624157091
ANTELSAT                
1 40034U 14033AA  17131.68672387  .00000229  00000-0  41836-4 0  9991
2 40034  97.8642  16.7402 0060354  51.1502 309.5071 14.73673150155015
FLOCK 1C-9              
1 40035U 14033AB  17131.75516416  .00000544  00000-0  64062-4 0  9996
2 40035  97.9258  44.4088 0013423  53.6051 306.6391 14.88783489157084
FLOCK 1C-6              
1 40036U 14033AC  17131.71151023  .00000406  00000-0  49224-4 0  9992
2 40036  97.9279  44.5608 0013380  55.3557 304.8941 14.88886212157099
PERSEUS-M2              
1 40037U 14033AD  17131.70337279  .00000093  00000-0  16805-4 0  9992
2 40037  97.9148  40.6531 0015841  67.2947 292.9941 14.86212004156890
FLOCK 1C-5              
1 40038U 14033AE  17131.71861142  .00000543  00000-0  63816-4 0  9999
2 40038  97.9285  44.3890 0016178  54.8163 305.4607 14.88883568157080
PERSEUS-M1              
1 40039U 14033AF  17131.69391926  .00000074  00000-0  14828-4 0  9993
2 40039  97.9156  40.2251 0015669  63.6190 296.6632 14.85836496156348
FLOCK 1C-8              
1 40040U 14033AG  17131.75666489  .00000494  00000-0  56011-4 0  9997
2 40040  97.9292  46.3889 0014541  45.1421 315.0959 14.90814077157206
